NORAD_CAT_ID,OBJECT_NAME,OBJECT_TYPE,EPOCH,MEAN_MOTION,ECCENTRICITY,INCLINATION,RA_OF_ASC_NODE,ARG_OF_PERICENTER,MEAN_ANOMALY,BSTAR,MEAN_MOTION_DOT,MEAN_MOTION_DDOT,TLE_LINE0,TLE_LINE1,TLE_LINE2,SEMIMAJOR_AXIS,PERIOD,APOGEE,PERIGEE,DECAYED
52704.0,STARLINK-3999,PAYLOAD,2023-01-08 11:15:14,15.08836861,0.0002571,53.2171,284.6111,30.8783,329.236,0.00019636,2.838e-05,0.0,0 STARLINK-3999,1 52704U 22053BA  23008.46891997  .00002838  00000-0  19636-3 0  9995,2 52704  53.2171 284.6111 0002571  30.8783 329.2360 15.08836861 36769,6917.89,95.438,541.534,537.976,0.0
52704.0,STARLINK-3999,PAYLOAD,2023-01-08 20:47:33,15.08835544,0.000259,53.2168,282.8268,32.7494,327.3658,0.00016509,2.34e-05,0.0,0 STARLINK-3999,1 52704U 22053BA  23008.86636334  .00002340  00000-0  16509-3 0  9995,2 52704  53.2168 282.8268 0002590  32.7494 327.3658 15.08835544 36822,6917.894,95.438,541.5509999999998,537.967,0.0
52704.0,STARLINK-3999,PAYLOAD,2023-01-09 11:06:02,15.08844844,0.0002634999999999,53.2163,280.1507,33.6155,326.5004,0.00046672,7.149e-05,0.0,0 STARLINK-3999,1 52704U 22053BA  23009.46252337  .00007149  00000-0  46672-3 0  9995,2 52704  53.2163 280.1507 0002635  33.6155 326.5004 15.08844844 36917,6917.866,95.437,541.553,537.908,0.0
52704.0,STARLINK-3999,PAYLOAD,2023-01-10 01:24:30,15.08838636,0.0002558,53.2159,277.4751,32.6088,327.5062,0.00015077,2.112e-05,0.0,0 STARLINK-3999,1 52704U 22053BA  23010.05868474  .00002112  00000-0  15077-3 0  9997,2 52704  53.2159 277.4751 0002558  32.6088 327.5062 15.08838636 36579,6917.885,95.438,541.519,537.98,0.0
52704.0,STARLINK-3999,PAYLOAD,2023-01-10 10:56:49,15.08841705,0.0002587,53.2159,275.6901,32.5367,327.5785,0.00016867,2.397e-05,0.0,0 STARLINK-3999,1 52704U 22053BA  23010.45612434  .00002397  00000-0  16867-3 0  9997,2 52704  53.2159 275.6901 0002587  32.5367 327.5785 15.08841705 37065,6917.875,95.437,541.53,537.951,0.0
52704.0,STARLINK-3999,PAYLOAD,2023-01-11 01:15:17,15.08837593,0.0002288,53.2234,273.0114,39.8893,320.2267,0.00012093,1.637e-05,0.0,0 STARLINK-3999,1 52704U 22053BA  23011.05228924  .00001637  00000-0  12093-3 0  9994,2 52704  53.2234 273.0114 0002288  39.8893 320.2267 15.08837593 36726,6917.888000000001,95.438,541.336,538.17,0.0
52704.0,STARLINK-3999,PAYLOAD,2023-01-11 10:47:36,15.088394199999998,0.0003199,53.2231,271.2284,45.5721,314.5533,5.8536e-05,6.43e-06,0.0,0 STARLINK-3999,1 52704U 22053BA  23011.44973231  .00000643  00000-0  58536-4 0  9994,2 52704  53.2231 271.2284 0003199  45.5721 314.5533 15.08839420 37215,6917.882,95.438,541.96,537.534,0.0
52704.0,STARLINK-3999,PAYLOAD,2023-01-11 20:19:54,15.08849586,0.0002248,53.2169,269.4447,30.2749,329.8373,0.00025081,3.707e-05,0.0,0 STARLINK-3999,1 52704U 22053BA  23011.84716261  .00003707  00000-0  25081-3 0  9998,2 52704  53.2169 269.4447 0002248  30.2749 329.8373 15.08849586 37271,6917.851,95.437,541.271,538.161,0.0
52704.0,STARLINK-3999,PAYLOAD,2023-01-12 18:35:19,15.08841424,0.0002579,53.216,265.2828,27.2586,332.8541,0.00021096,3.071e-05,0.0,0 STARLINK-3999,1 52704U 22053BA  23012.77452677  .00003071  00000-0  21096-3 0  9995,2 52704  53.2160 265.2828 0002579  27.2586 332.8541 15.08841424 36982,6917.876,95.437,541.525,537.957,0.0
52704.0,STARLINK-3999,PAYLOAD,2023-01-12 21:46:05,15.0884105,0.0002579,53.216,264.6879,28.3988,331.7144,0.00019089,2.751e-05,0.0,0 STARLINK-3999,1 52704U 22053BA  23012.90700735  .00002751  00000-0  19089-3 0  9994,2 52704  53.2160 264.6879 0002579  28.3988 331.7144 15.08841050 37432,6917.877,95.437,541.526,537.9580000000002,0.0
52704.0,STARLINK-3999,PAYLOAD,2023-01-13 12:04:34,15.08830602,0.0002154999999999,53.2173,262.0114,22.2831,337.8255,-0.00012023,-2.201e-05,0.0,0 STARLINK-3999,1 52704U 22053BA  23013.50317243 -.00002201  00000-0 -12023-3 0  9992,2 52704  53.2173 262.0114 0002155  22.2831 337.8255 15.08830602 37521,6917.909000000001,95.438,541.265,538.283,0.0
52704.0,STARLINK-3999,PAYLOAD,2023-01-13 18:26:06,15.08834966,0.0002711,53.2149,260.8239,31.2072,328.9081,-3.7572e-05,-8.86e-06,0.0,0 STARLINK-3999,1 52704U 22053BA  23013.76813292 -.00000886  00000-0 -37572-4 0  9999,2 52704  53.2149 260.8239 0002711  31.2072 328.9081 15.08834966 37135,6917.896,95.438,541.636,537.885,0.0
52704.0,STARLINK-3999,PAYLOAD,2023-01-14 18:16:54,15.0882255,0.0002444,53.2161,256.3603,34.1947,325.9203,-4.3009e-05,-9.72e-06,0.0,0 STARLINK-3999,1 52704U 22053BA  23014.76174314 -.00000972  00000-0 -43009-4 0  9993,2 52704  53.2161 256.3603 0002444  34.1947 325.9203 15.08822550 37285,6917.934,95.439,541.489,538.1080000000001,0.0
52704.0,STARLINK-3999,PAYLOAD,2023-01-14 23:03:03,15.08832238,0.0002424999999999,53.2161,255.4691,32.3421,327.7719,0.00010273,1.347e-05,0.0,0 STARLINK-3999,1 52704U 22053BA  23014.96046017  .00001347  00000-0  10273-3 0  9994,2 52704  53.2161 255.4691 0002425  32.3421 327.7719 15.08832238 37318,6917.904,95.438,541.447,538.092,0.0
52704.0,STARLINK-3999,PAYLOAD,2023-01-15 11:46:09,15.0882925,0.0002392,53.2134,253.0915,42.5758,317.54200000000003,0.00012285,1.667e-05,0.0,0 STARLINK-3999,1 52704U 22053BA  23015.49038645  .00001667  00000-0  12285-3 0  9991,2 52704  53.2134 253.0915 0002392  42.5758 317.5420 15.08829250 37822,6917.9130000000005,95.438,541.433,538.123,0.0
52704.0,STARLINK-3999,PAYLOAD,2023-01-15 22:53:50,15.08847854,0.0002151999999999,53.2142,251.0097,40.6082,319.507,0.00043764,6.685e-05,0.0,0 STARLINK-3999,1 52704U 22053BA  23015.95406188  .00006685  00000-0  43764-3 0  9994,2 52704  53.2142 251.0097 0002152  40.6082 319.5070 15.08847854 37893,6917.856,95.437,541.21,538.2330000000001,0.0
52704.0,STARLINK-3999,PAYLOAD,2023-01-16 10:01:33,15.08838742,0.0002125,53.2134,248.9285,48.5728,311.5447,0.00020558,2.985e-05,0.0,0 STARLINK-3999,1 52704U 22053BA  23016.41774694  .00002985  00000-0  20558-3 0  9991,2 52704  53.2134 248.9285 0002125  48.5728 311.5447 15.08838742 37539,6917.884,95.438,541.219,538.279,0.0
52704.0,STARLINK-3999,PAYLOAD,2023-01-16 13:12:20,15.08825127,0.0002099,53.2131,248.3333,51.1416,308.9763,-7.621900000000001e-06,-4.09e-06,0.0,0 STARLINK-3999,1 52704U 22053BA  23016.55023184 -.00000409  00000-0 -76219-5 0  9995,2 52704  53.2131 248.3333 0002099  51.1416 308.9763 15.08825127 37981,6917.926,95.438,541.243,538.339,0.0
52704.0,STARLINK-3999,PAYLOAD,2023-01-16 17:58:29,15.08825332,0.0001956999999999,53.2138,247.4401,52.5308,307.5862,4.1713e-05,3.76e-06,0.0,0 STARLINK-3999,1 52704U 22053BA  23016.74895350  .00000376  00000-0  41713-4 0  9999,2 52704  53.2138 247.4401 0001957  52.5308 307.5862 15.08825332 37580,6917.925,95.438,541.144,538.436,0.0
52704.0,STARLINK-3999,PAYLOAD,2023-01-17 09:52:21,15.08833131,0.0002016,53.2137,244.4668,52.5763,307.5412,8.533399999999999e-05,1.07e-05,0.0,0 STARLINK-3999,1 52704U 22053BA  23017.41135417  .00001070  00000-0  85334-4 0  9994,2 52704  53.2137 244.4668 0002016  52.5763 307.5412 15.08833131 38110,6917.901,95.438,541.161,538.372,0.0
52704.0,STARLINK-3999,PAYLOAD,2023-01-17 17:49:16,15.0883672,0.0001982,53.2136,242.9799,55.0564,305.0614,0.00011294,1.51e-05,0.0,0 STARLINK-3999,1 52704U 22053BA  23017.74255410  .00001510  00000-0  11294-3 0  9998,2 52704  53.2136 242.9799 0001982  55.0564 305.0614 15.08836720 37736,6917.89,95.438,541.127,538.384,0.0
52704.0,STARLINK-3999,PAYLOAD,2023-01-18 08:07:45,15.08835705,0.0001937,53.2136,240.3035,59.0313,301.0869,0.00053653,8.26e-05,0.0,0 STARLINK-3999,1 52704U 22053BA  23018.33871914  .00008260  00000-0  53653-3 0  9991,2 52704  53.2136 240.3035 0001937  59.0313 301.0869 15.08835705 38255,6917.894,95.438,541.099,538.419,0.0
52704.0,STARLINK-3999,PAYLOAD,2023-01-18 20:50:49,15.08847798,0.0001836,53.2133,237.9244,59.2264,300.8909,0.00036925,5.595e-05,0.0,0 STARLINK-3999,1 52704U 22053BA  23018.86863259  .00005595  00000-0  36925-3 0  9993,2 52704  53.2133 237.9244 0001836  59.2264 300.8909 15.08847798 37909,6917.857,95.437,540.992,538.451,0.0
52704.0,STARLINK-3999,PAYLOAD,2023-01-19 07:58:31,15.088416699999998,0.000185,53.213,235.8431,60.7047,299.413,0.00014161,1.966e-05,0.0,0 STARLINK-3999,1 52704U 22053BA  23019.33231390  .00001966  00000-0  14161-3 0  9997,2 52704  53.2130 235.8431 0001850  60.7047 299.4130 15.08841670 37972,6917.875,95.437,541.02,538.46,0.0
52704.0,STARLINK-3999,PAYLOAD,2023-01-19 12:44:41,15.08841833,0.0002019,53.2129,234.9508,64.3543,295.7658,0.00014902,2.084e-05,0.0,0 STARLINK-3999,1 52704U 22053BA  23019.53103493  .00002084  00000-0  14902-3 0  9996,2 52704  53.2129 234.9508 0002019  64.3543 295.7658 15.08841833 38431,6917.875,95.437,541.137,538.3430000000001,0.0
52704.0,STARLINK-3999,PAYLOAD,2023-01-19 20:41:37,15.08840818,0.000183,53.213,233.4638,65.5301,294.5882,0.00011938,1.612e-05,0.0,0 STARLINK-3999,1 52704U 22053BA  23019.86223582  .00001612  00000-0  11938-3 0  9996,2 52704  53.2130 233.4638 0001830  65.5301 294.5882 15.08840818 38489,6917.878000000001,95.438,541.009,538.477,0.0
52704.0,STARLINK-3999,PAYLOAD,2023-01-20 15:46:14,15.08846698,0.0001785,53.2136,229.8946,69.0551,291.0632,0.00017676,2.527e-05,0.0,0 STARLINK-3999,1 52704U 22053BA  23020.65711258  .00002527  00000-0  17676-3 0  9998,2 52704  53.2136 229.8946 0001785  69.0551 291.0632 15.08846698 38174,6917.86,95.437,540.96,538.49,0.0
52704.0,STARLINK-3999,PAYLOAD,2023-01-21 17:12:24,15.08849622,0.0001839,53.2132,225.1363,68.6661,291.4528,-4.9906000000000006e-05,-1.083e-05,0.0,0 STARLINK-3999,1 52704U 22053BA  23021.71694858 -.00001083  00000-0 -49906-4 0  9992,2 52704  53.2132 225.1363 0001839  68.6661 291.4528 15.08849622 38335,6917.851,95.437,540.988,538.444,0.0
52704.0,STARLINK-3999,PAYLOAD,2023-01-22 05:55:27,15.08879101,0.0001439,53.2134,222.7571,64.4342,295.6799,0.00064999,0.00010083,0.0,0 STARLINK-3999,1 52704U 22053BA  23022.24684968  .00010083  00000-0  64999-3 0  9998,2 52704  53.2134 222.7571 0001439  64.4342 295.6799 15.08879101 38417,6917.761,95.435,540.621,538.63,0.0
